AreaID,AreaCode,Locality,Country,State/Province,Latitude,Longitude,Lat10,Long10,Altitude,Alt SRTM,Domain,EcoUnit,FitGeoN,Asp Ocean,Thermic realm,Elevation range,Zonal Azonal,Climatic regime,Leaf flush,Vegetation physiognomy,Vegetation type
2566,AmzBO001,"Santa Rosa del Abuná, bosque pluvial de tierra firme",Bolivia,Pando,10°36’25”S,67°26’53”W,-10.6069,-67.4481,151,149,Amazonia,Central-Southern Amazonian Sedimentary Basin,4,Windward,Equatorial,Lowland,(Zonal),Rain,Evergreen,Broadleaved Forest,Equatorial Lowland Rain Evergreen Broadleaved Forest
2629,AmzBO002,"Aeropista América, bosque pluvial de tierra firme",Bolivia,Pando,10°45’49”S,66°43’40”W,-10.7636,-66.7278,165,182,Amazonia,Central-Southern Amazonian Sedimentary Basin,4,Windward,Equatorial,Lowland,(Zonal),Rain,Evergreen,Broadleaved Forest,Equatorial Lowland Rain Evergreen Broadleaved Forest
2630,AmzBO003,"Puerto Rico, bosque pluvial de tierra firme",Bolivia,Pando,10°59’42”S,67°47’12”W,-10.995,-67.7867,241,238,Amazonia,Central-Southern Amazonian Sedimentary Basin,4,Windward,Equatorial,Lowland,(Zonal),Rain,Evergreen,Broadleaved Forest,Equatorial Lowland Rain Evergreen Broadleaved Forest
5418,AmzBO004,"Cobija y Epitaciolândia, bosque pluvial de tierra firme",Bolivia/Brasil,Pando/Acre,11°08’57”S,68°41’23”W,-11.1492,-68.6897,298,294,Amazonia,Central-Southern Amazonian Sedimentary Basin,4,Windward,Equatorial,Lowland,(Zonal),Rain,Evergreen,Broadleaved Forest,Equatorial Lowland Rain Evergreen Broadleaved Forest
2568,AmzBO005,"Conquista, bosque pluvial de tierra firme",Bolivia,Pando,11°17’03”S,67°24’21”W,-11.2842,-67.4058,204,203,Amazonia,Central-Southern Amazonian Sedimentary Basin,4,Windward,Equatorial,Lowland,(Zonal),Rain,Evergreen,Broadleaved Forest,Equatorial Lowland Rain Evergreen Broadleaved Forest
2569,AmzBO006,"Chivesito, bosque pluvial de tierra firme",Bolivia,Pando,11°36’20”S,68°49’44”W,-11.6056,-68.8289,271,282,Amazonia,Central-Southern Amazonian Sedimentary Basin,4,Windward,Equatorial,Lowland,(Zonal),Rain,Evergreen,Broadleaved Forest,Equatorial Lowland Rain Evergreen Broadleaved Forest
2570,AmzBO007,"Reserva Manuripí-Heath, Muratu, bosque pluvial de tierra firme",Bolivia,Pando,11°39’41”S,68°10’07”W,-11.6614,-68.1686,245,215,Amazonia,Central-Southern Amazonian Sedimentary Basin,4,Windward,Equatorial,Lowland,(Zonal),Rain,Evergreen,Broadleaved Forest,Equatorial Lowland Rain Evergreen Broadleaved Forest
2626,AmzBO008,"Blanca Flor, bosque pluvial de tierra firme",Bolivia,Pando,11°42’21”S,67°10’22”W,-11.7058,-67.1728,196,206,Amazonia,Central-Southern Amazonian Sedimentary Basin,4,Windward,Equatorial,Lowland,(Zonal),Rain,Evergreen,Broadleaved Forest,Equatorial Lowland Rain Evergreen Broadleaved Forest
2638,AmzBO009,"Pacaguaras, Medio Madidi, bosque pluvial de tierra firme",Bolivia,La Paz,12°59’35”S,67°53’31”W,-12.9931,-67.8919,195,192,Amazonia,Central-Southern Amazonian Sedimentary Basin,4,Windward,Tropical,Lowland,(Zonal),Rain,Evergreen,Broadleaved Forest,Tropical Lowland Rain Evergreen Broadleaved Forest
5425,AmzBO010,"Estacion Biosferica del Beni, bosque pluvial de tierra firme",Bolivia,Beni,14°43’47”S,66°19’05”W,-14.7297,-66.3181,196,191,Amazonia,Central-Southern Amazonian Sedimentary Basin,4,Windward,Tropical,Lowland,(Zonal),Rain,Evergreen,Broadleaved Forest,Tropical Lowland Rain Evergreen Broadleaved Forest
2578,AmzBO011,"San Ignacio de Moxos, bosque pluvial de tierra firme",Bolivia,Beni,14°58’33”S,65°35’05”W,-14.9758,-65.5847,173,182,Amazonia,Central-Southern Amazonian Sedimentary Basin,4,Windward,Tropical,Lowland,(Zonal),Rain,Evergreen,Broadleaved Forest,Tropical Lowland Rain Evergreen Broadleaved Forest
2571,AmzBO012,"Chive, bosque pluvial submontano",Bolivia,Pando,12°20’15”S,68°34’46”W,-12.3375,-68.5794,205,196,Amazonia,Central-Southern Amazonian Sedimentary Basin,4,Windward,Tropical,Lower hills,(Zonal),Rain,Evergreen,Broadleaved Forest,Tropical Lower hills Rain Evergreen Broadleaved Forest
2611,AmzBO013,"Santa Ana de Madidi, bosque pluvial submontano",Bolivia,La Paz,13°18’39”S,68°37’31”W,-13.3108,-68.6253,231,235,Amazonia,Central-Southern Amazonian Sedimentary Basin,4,Windward,Tropical,Lower hills,(Zonal),Rain,Evergreen,Broadleaved Forest,Tropical Lower hills Rain Evergreen Broadleaved Forest
2543,AmzBO014,"Ixiamas, Santa Fe, bosque pluvial submontano",Bolivia,La Paz,13°43’49”S,68°11’39”W,-13.7303,-68.1942,283,276,Amazonia,Central-Southern Amazonian Sedimentary Basin,4,Windward,Tropical,Lower hills,(Zonal),Rain,Evergreen,Broadleaved Forest,Tropical Lower hills Rain Evergreen Broadleaved Forest
2545,AmzBO015,"Rurrenabaque, bosque pluvial submontano",Bolivia,La Paz,14°22’17”S,67°34’10”W,-14.3714,-67.5694,220,213,Amazonia,Central-Southern Amazonian Sedimentary Basin,4,Windward,Tropical,Lower hills,(Zonal),Rain,Evergreen,Broadleaved Forest,Tropical Lower hills Rain Evergreen Broadleaved Forest
1770,AmzBO016,"Chalalan, bosque pluvial submontano",Bolivia,La Paz,14°24’56”S,67°56’11”W,-14.4156,-67.9364,419,385,Amazonia,Central-Southern Amazonian Sedimentary Basin,4,Windward,Tropical,Lower hills,(Zonal),Rain,Evergreen,Broadleaved Forest,Tropical Lower hills Rain Evergreen Broadleaved Forest
2532,AmzBO017,"Arroyo Aguapolo, bosque pluvial submontano",Bolivia,La Paz,14°30’42”S,67°45’37”W,-14.5117,-67.7603,303,301,Amazonia,Central-Southern Amazonian Sedimentary Basin,4,Windward,Tropical,Lower hills,(Zonal),Rain,Evergreen,Broadleaved Forest,Tropical Lower hills Rain Evergreen Broadleaved Forest
1771,AmzBO018,"El Río Hondo, bosque pluvial submontano",Bolivia,La Paz,14°36’06”S,67°34’02”W,-14.6017,-67.5672,243,234,Amazonia,Central-Southern Amazonian Sedimentary Basin,4,Windward,Tropical,Lower hills,(Zonal),Rain,Evergreen,Broadleaved Forest,Tropical Lower hills Rain Evergreen Broadleaved Forest
2530,AmzBO019,"Arroyo Negro, bosque pluvial submontano",Bolivia,La Paz,14°38’57”S,67°47’48”W,-14.6492,-67.7967,302,330,Amazonia,Central-Southern Amazonian Sedimentary Basin,4,Windward,Tropical,Lower hills,(Zonal),Rain,Evergreen,Broadleaved Forest,Tropical Lower hills Rain Evergreen Broadleaved Forest
2546,AmzBO020,"Pilón Lajas, Río Colorado, bosque pluvial submontano",Bolivia,Beni,14°50’43”S,67°05’31”W,-14.8453,-67.0919,263,260,Amazonia,Central-Southern Amazonian Sedimentary Basin,4,Windward,Tropical,Lower hills,(Zonal),Rain,Evergreen,Broadleaved Forest,Tropical Lower hills Rain Evergreen Broadleaved Forest
3754,AmzBO021,"Isiboro Secure, bosque pluvial submontano",Bolivia,Beni,16°18’52”S,65°55’22”W,-16.3144,-65.9228,243,247,Amazonia,Central-Southern Amazonian Sedimentary Basin,4,Windward,Tropical,Lower hills,(Zonal),Rain,Evergreen,Broadleaved Forest,Tropical Lower hills Rain Evergreen Broadleaved Forest
3774,AmzBO022,"Villa Tunarí, bosque pluvial submontano",Bolivia,Cochabamba,16°57’28”S,65°25’29”W,-16.9578,-65.4247,361,362,Amazonia,Central-Southern Amazonian Sedimentary Basin,4,Windward,Tropical,Lower hills,(Zonal),Rain,Evergreen,Broadleaved Forest,Tropical Lower hills Rain Evergreen Broadleaved Forest
2529,AmzBO023,"Estación El Sajta, bosque pluvial submontano",Bolivia,Cochabamba,17°05’13”S,64°46’05”W,-17.0869,-64.7681,246,233,Amazonia,Central-Southern Amazonian Sedimentary Basin,4,Windward,Tropical,Lower hills,(Zonal),Rain,Evergreen,Broadleaved Forest,Tropical Lower hills Rain Evergreen Broadleaved Forest
3756,AmzBO024,"Santa Rosa del Sara, bosque pluvial submontano",Bolivia,Santa Cruz,17°10’57”S,63°40’10”W,-17.1825,-63.6694,272,286,Amazonia,Central-Southern Amazonian Sedimentary Basin,4,Windward,Tropical,Lower hills,(Zonal),Rain,Evergreen,Broadleaved Forest,Tropical Lower hills Rain Evergreen Broadleaved Forest
1769,AmzBO025,"Puerto Rico, Rio Tahuamanu, bosque inundable de agua blanca",Bolivia,Pando,11°00’15”S,67°23’56”W,-11.0042,-67.3989,189,160,Amazonia,Central-Southern Amazonian Sedimentary Basin,4,Windward,Equatorial,Lowland,Floodplain,Rain,Evergreen,Broadleaved Forest,Equatorial Lowland Floodplain Rain Evergreen Broadleaved Forest
2573,AmzBO026,"Boca Muyamanu, Río Tahuamanu, bosque inundable de agua blanca",Bolivia,Pando,11°26’33”S,69°01’04”W,-11.4425,-69.0178,245,253,Amazonia,Central-Southern Amazonian Sedimentary Basin,4,Windward,Equatorial,Lowland,Floodplain,Rain,Evergreen,Broadleaved Forest,Equatorial Lowland Floodplain Rain Evergreen Broadleaved Forest
2572,AmzBO027,"Sena, Río Madre de Dios, bosque inundable de agua blanca",Bolivia,Pando,11°29’04”S,67°15’56”W,-11.4844,-67.2656,157,157,Amazonia,Central-Southern Amazonian Sedimentary Basin,4,Windward,Equatorial,Lowland,Floodplain,Rain,Evergreen,Broadleaved Forest,Equatorial Lowland Floodplain Rain Evergreen Broadleaved Forest
1338,AmzBO028,"Santa Catalina, Meandros del Río Beni, bosque inundable de agua blanca",Bolivia,La Paz/Beni,13°13’35”S,67°17’28”W,-13.2264,-67.2911,179,177,Amazonia,Central-Southern Amazonian Sedimentary Basin,4,Windward,Tropical,Lowland,Floodplain,Rain,Evergreen,Broadleaved Forest,Tropical Lowland Floodplain Rain Evergreen Broadleaved Forest
2609,AmzBO029,"San Borja, Río Maniqui, bosque inundable de agua blanca",Bolivia,Beni,14°46’07”S,66°38’49”W,-14.7686,-66.6469,198,194,Amazonia,Central-Southern Amazonian Sedimentary Basin,4,Windward,Tropical,Lowland,Floodplain,Rain,Evergreen,Broadleaved Forest,Tropical Lowland Floodplain Rain Evergreen Broadleaved Forest
2636,AmzBO030,"Trinidad, Río Mamoré, bosque inundable de agua blanca",Bolivia,Beni,14°52’04”S,64°59’01”W,-14.8678,-64.9836,166,158,Amazonia,Central-Southern Amazonian Sedimentary Basin,4,Windward,Tropical,Lowland,Floodplain,Rain,Evergreen,Broadleaved Forest,Tropical Lowland Floodplain Rain Evergreen Broadleaved Forest
2542,AmzBO031,"Alto Río Madidi, bosque inundable de agua blanca",Bolivia,La Paz,13°34’57”S,68°45’54”W,-13.5825,-68.765,241,248,Amazonia,Central-Southern Amazonian Sedimentary Basin,4,Windward,Tropical,Lower hills,Floodplain,Rain,Evergreen,Broadleaved Forest,Tropical Lower hills Floodplain Rain Evergreen Broadleaved Forest
2633,AmzBO032,"Ixiamas, Río Undumo, bosque inundable de agua blanca",Bolivia,La Paz,13°35’10”S,68°16’37”W,-13.5861,-68.2769,259,236,Amazonia,Central-Southern Amazonian Sedimentary Basin,4,Windward,Tropical,Lower hills,Floodplain,Rain,Evergreen,Broadleaved Forest,Tropical Lower hills Floodplain Rain Evergreen Broadleaved Forest
6525,AmzBO033,"Río Tuichi, bosque inundable de agua blanca",Bolivia,La Paz,14°29’41”S,67°49’23”W,-14.4947,-67.5672,307,298,Amazonia,Central-Southern Amazonian Sedimentary Basin,4,Windward,Tropical,Lower hills,Floodplain,Rain,Evergreen,Broadleaved Forest,Tropical Lower hills Floodplain Rain Evergreen Broadleaved Forest
6526,AmzBO034,"Arroyo Negro, Alto Río Beni, bosque inundable de agua blanca",Bolivia,La Paz,14°40’26”S,67°35’15”W,-14.6739,-67.5875,235,225,Amazonia,Central-Southern Amazonian Sedimentary Basin,4,Windward,Tropical,Lower hills,Floodplain,Rain,Evergreen,Broadleaved Forest,Tropical Lower hills Floodplain Rain Evergreen Broadleaved Forest
2608,AmzBO035,"Bosque de Chimanes, Río Apere, bosque inundable de agua blanca",Bolivia,Beni,15°29’59”S,66°18’01”W,-15.4997,-66.3003,249,247,Amazonia,Central-Southern Amazonian Sedimentary Basin,4,Windward,Tropical,Lower hills,Floodplain,Rain,Evergreen,Broadleaved Forest,Tropical Lower hills Floodplain Rain Evergreen Broadleaved Forest
2528,AmzBO036,"Río Ichilo, bosque inundable de agua blanca",Bolivia,Cochabamba,16°26’59”S,64°42’58”W,-16.4497,-64.7161,207,198,Amazonia,Central-Southern Amazonian Sedimentary Basin,4,Windward,Tropical,Lower hills,Floodplain,Rain,Evergreen,Broadleaved Forest,Tropical Lower hills Floodplain Rain Evergreen Broadleaved Forest
2563,AmzBO037,"Nueva Esperanza, Río Madeira, bosque estacional inundable",Bolivia/Brasil,Pando/Rondônia,10°02’57”S,65°20’02”W,-10.0492,-65.3339,129,121,Amazonia,Central-Southern Amazonian Sedimentary Basin,4,Leeward,Equatorial,Lowland,Floodplain,Seasonally dry,Evergreen,Broadleaved Forest,Equatorial Lowland Floodplain Seasonally dry Evergreen Broadleaved Forest
2621,AmzBO038,"Cachuela El Carmen, Río Negro, bosque estacional inundable",Bolivia,Pando,10°12’15”S,65°41’58”W,-10.2042,-65.6994,115,105,Amazonia,Central-Southern Amazonian Sedimentary Basin,4,Leeward,Equatorial,Lowland,Floodplain,Seasonally dry,Evergreen,Broadleaved Forest,Equatorial Lowland Floodplain Seasonally dry Evergreen Broadleaved Forest
2567,AmzBO039,"Riberalta, Progreso, Río Madre de Dios, bosque estacional inundable",Bolivia,Pando,10°48’22”S,65°58’58”W,-10.8061,-65.9828,139,131,Amazonia,Central-Southern Amazonian Sedimentary Basin,4,Leeward,Equatorial,Lowland,Floodplain,Seasonally dry,Evergreen,Broadleaved Forest,Equatorial Lowland Floodplain Seasonally dry Evergreen Broadleaved Forest
1356,AmzBO040,"Vaca Díez, Río Ivon, bosque estacional inundable",Bolivia,Beni,11°32’44”S,66°04’55”W,-11.5486,-66.0819,137,161,Amazonia,Central-Southern Amazonian Sedimentary Basin,4,Leeward,Equatorial,Lowland,Floodplain,Seasonally dry,Evergreen,Broadleaved Forest,Equatorial Lowland Floodplain Seasonally dry Evergreen Broadleaved Forest
2634,AmzBO041,"Confluencia Ríos Yata y Benício, bosque estacional inundable",Bolivia,Beni,11°36’27”S,65°38’56”W,-11.6075,-65.6489,128,125,Amazonia,Central-Southern Amazonian Sedimentary Basin,4,Leeward,Equatorial,Lowland,Floodplain,Seasonally dry,Evergreen,Broadleaved Forest,Equatorial Lowland Floodplain Seasonally dry Evergreen Broadleaved Forest
737,AmzBO042,"Santa Ana del Yacuma, Río Mamoré, bosque estacional inundable",Bolivia,Beni,13°39’44”S,65°18’04”W,-13.6622,-65.3011,152,146,Amazonia,Central-Southern Amazonian Sedimentary Basin,4,Leeward,Tropical,Lowland,Floodplain,Seasonally dry,Evergreen,Broadleaved Forest,Tropical Lowland Floodplain Seasonally dry Evergreen Broadleaved Forest
2574,AmzBO043,"Río Manuripi, bosque inundable de agua negra",Bolivia,Pando,11°15’27”S,67°36’12”W,-11.2575,-67.6033,175,175,Amazonia,Central-Southern Amazonian Sedimentary Basin,4,Windward,Equatorial,Lowland,Sandy-Floodplain,Rain,Evergreen,Broadleaved Forest,Equatorial Lowland Sandy-Floodplain Rain Evergreen Broadleaved Forest
2628,AmzBO044,"Sena, Naranjal, bosque enano de arenas blancas",Bolivia,Pando,11°29’38”S,67°01’11”W,-11.4939,-67.0197,190,191,Amazonia,Central-Southern Amazonian Sedimentary Basin,4,Windward,Equatorial,Lowland,Sandy,Rain,Evergreen,Broadleaved Dwarf-forest,Equatorial Lowland Sandy Rain Evergreen Broadleaved Dwarf-forest
5420,AmzBO045,"Reserva Manuripí-Heath, bosque enano de arenas blancas",Bolivia,Pando,11°54’19”S,68°37’28”W,-11.9053,-68.6244,210,219,Amazonia,Central-Southern Amazonian Sedimentary Basin,4,Windward,Equatorial,Lowland,Sandy,Rain,Evergreen,Broadleaved Dwarf-forest,Equatorial Lowland Sandy Rain Evergreen Broadleaved Dwarf-forest
6257,AmzBO046,"Concesión Forestal Mabet, bosque estacional de tierra firme",Bolivia,Pando,10°03’59”S,65°53’20”W,-10.0664,-66.8889,146,141,Amazonia,Central-Southern Amazonian Sedimentary Basin,4,Leeward,Equatorial,Lowland,(Zonal),Seasonally dry,Evergreen,Broadleaved Forest,Equatorial Lowland Seasonally dry Evergreen Broadleaved Forest
2564,AmzBO047,"Puerto Manu, bosque estacional de tierra firme",Bolivia,Pando,10°06’16”S,66°29’14”W,-10.1044,-66.4872,131,141,Amazonia,Central-Southern Amazonian Sedimentary Basin,4,Leeward,Equatorial,Lowland,(Zonal),Seasonally dry,Evergreen,Broadleaved Forest,Equatorial Lowland Seasonally dry Evergreen Broadleaved Forest
2520,AmzBO048,"Puerto Consuelo, bosque estacional de tierra firme",Bolivia,Pando,10°31’26”S,65°35’53”W,-10.5239,-65.5981,148,143,Amazonia,Central-Southern Amazonian Sedimentary Basin,4,Leeward,Equatorial,Lowland,(Zonal),Seasonally dry,Evergreen,Broadleaved Forest,Equatorial Lowland Seasonally dry Evergreen Broadleaved Forest
2565,AmzBO049,"Colonia Fortaleza, bosque estacional de tierra firme",Bolivia,Pando,10°31’26”S,66°09’18”W,-10.5239,-66.155,138,143,Amazonia,Central-Southern Amazonian Sedimentary Basin,4,Leeward,Equatorial,Lowland,(Zonal),Seasonally dry,Evergreen,Broadleaved Forest,Equatorial Lowland Seasonally dry Evergreen Broadleaved Forest
2521,AmzBO050,"Yata, El Tigre, bosque estacional de tierra firme",Bolivia,Beni,10°58’16”S,65°42’54”W,-10.9711,-65.715,169,171,Amazonia,Central-Southern Amazonian Sedimentary Basin,4,Leeward,Equatorial,Lowland,(Zonal),Seasonally dry,Evergreen,Broadleaved Forest,Equatorial Lowland Seasonally dry Evergreen Broadleaved Forest
6522,AmzBO051,"Vaca Díez, Santa Cecilia, bosque estacional de tierra firme",Bolivia,Beni,11°34’35”S,65°59’33”W,-11.5764,-65.9925,168,162,Amazonia,Central-Southern Amazonian Sedimentary Basin,4,Leeward,Equatorial,Lowland,(Zonal),Seasonally dry,Evergreen,Broadleaved Forest,Equatorial Lowland Seasonally dry Evergreen Broadleaved Forest
2635,AmzBO052,"El Rosario, sabana hiper-estacional",Bolivia,Beni,11°46’18”S,66°15’46”W,-11.7717,-66.2628,171,176,Amazonia,Central-Southern Amazonian Sedimentary Basin,4,Leeward,Equatorial,Lowland,Waterlogged,Seasonally dry,Semideciduous,Parkland Savanna,Equatorial Lowland Waterlogged Seasonally dry Semideciduous Parkland Savanna
6523,AmzBO053,"Lago Rogoaguado, sabana hiper-estacional",Bolivia,Beni,13°01’35”S,65°49’49”W,-13.0264,-65.8303,150,151,Amazonia,Central-Southern Amazonian Sedimentary Basin,4,Leeward,Tropical,Lowland,Waterlogged,Seasonally dry,Semideciduous,Parkland Savanna,Tropical Lowland Waterlogged Seasonally dry Semideciduous Parkland Savanna
3751,AmzBO054,"Reserva Manuripí-Heath, sabana cenagosa de palmeras",Bolivia,Pando,11°32’51”S,67°43’02”W,-11.5475,-67.7172,163,170,Amazonia,Central-Southern Amazonian Sedimentary Basin,4,Windward,Equatorial,Lowland,Waterlogged,Rain,Evergreen,Forested Savanna,Equatorial Lowland Waterlogged Rain Evergreen Forested Savanna
2575,AmzBO055,"Blanca Flor, sabana cenagosa de palmeras",Bolivia,Pando,11°41’33”S,66°54’49”W,-11.6925,-66.9136,191,183,Amazonia,Central-Southern Amazonian Sedimentary Basin,4,Windward,Equatorial,Lowland,Waterlogged,Rain,Evergreen,Forested Savanna,Equatorial Lowland Waterlogged Rain Evergreen Forested Savanna
3764,AmzBO056,"Arroyo Rímac, Bajo Madidi, sabana cenagosa de palmeras",Bolivia,La Paz,12°47’36”S,67°21’50”W,-12.7933,-67.3639,182,181,Amazonia,Central-Southern Amazonian Sedimentary Basin,4,Windward,Tropical,Lowland,Waterlogged,Rain,Evergreen,Forested Savanna,Tropical Lowland Waterlogged Rain Evergreen Forested Savanna
2607,AmzBO057,"Ixiamas, Bajo Río Undumo, sabana cenagosa de palmeras",Bolivia,La Paz,13°17’47”S,67°54’55”W,-13.2964,-67.9153,192,226,Amazonia,Central-Southern Amazonian Sedimentary Basin,4,Windward,Tropical,Lowland,Waterlogged,Rain,Evergreen,Forested Savanna,Tropical Lowland Waterlogged Rain Evergreen Forested Savanna
2577,AmzBO058,"Estacion Biosferica del Beni, sabana arbolada cenagosa",Bolivia,Beni,14°30’17”S,66°10’45”W,-14.5047,-66.1792,174,181,Amazonia,Central-Southern Amazonian Sedimentary Basin,4,Windward,Tropical,Lowland,Waterlogged,Rain,Evergreen,Parkland Savanna,Tropical Lowland Waterlogged Rain Evergreen Parkland Savanna
2637,AmzBO059,"Los Anteojos, sabana arbolada cenagosa",Bolivia,Beni,15°25’59”S,64°37’41”W,-15.4331,-64.6281,167,165,Amazonia,Central-Southern Amazonian Sedimentary Basin,4,Windward,Tropical,Lowland,Waterlogged,Rain,Evergreen,Parkland Savanna,Tropical Lowland Waterlogged Rain Evergreen Parkland Savanna
2599,AmzBO060,"Lago Caimán y Cabixi, Río Iténez, bosque estacional inundable",Bolivia/Brasil,Santa Cruz/Rondônia,13°35’51”S,60°53’51”W,-13.5975,-60.8975,179,175,Amazonia,Brazilian Shield Amazonia,5,Leeward,Tropical,Lowland,Floodplain,Seasonally dry,Evergreen,Broadleaved Forest,Tropical Lowland Floodplain Seasonally dry Evergreen Broadleaved Forest
6524,AmzBO061,"Lago Bella Vista, bosque estacional inundable",Bolivia,Santa Cruz,13°36’15”S,61°30’12”W,-13.6042,-61.5033,167,171,Amazonia,Brazilian Shield Amazonia,5,Leeward,Tropical,Lowland,Floodplain,Seasonally dry,Evergreen,Broadleaved Forest,Tropical Lowland Floodplain Seasonally dry Evergreen Broadleaved Forest
2600,AmzBO062,"Noel Kempf, Florida, Río Paragua, bosque estacional inundable",Bolivia,Santa Cruz,14°38’30”S,61°09’30”W,-14.6417,-61.1583,181,181,Amazonia,Brazilian Shield Amazonia,5,Leeward,Tropical,Lowland,Floodplain,Seasonally dry,Evergreen,Broadleaved Forest,Tropical Lowland Floodplain Seasonally dry Evergreen Broadleaved Forest
2641,AmzBO063,"Río Negro de Santa Cruz, bosque estacional inundable",Bolivia,Santa Cruz,14°52’36”S,62°38’00”W,-14.8767,-62.6333,211,206,Amazonia,Brazilian Shield Amazonia,5,Leeward,Tropical,Lowland,Floodplain,Seasonally dry,Evergreen,Broadleaved Forest,Tropical Lowland Floodplain Seasonally dry Evergreen Broadleaved Forest
2642,AmzBO064,"Río Negrillo de Santa Cruz, bosque estacional inundable",Bolivia,Santa Cruz,15°05’18”S,62°46’27”W,-15.0883,-62.7742,227,240,Amazonia,Brazilian Shield Amazonia,5,Leeward,Tropical,Lowland,Floodplain,Seasonally dry,Evergreen,Broadleaved Forest,Tropical Lowland Floodplain Seasonally dry Evergreen Broadleaved Forest
3752,AmzBO065,"Reserva Iténez, bosque estacional de tierra firme",Bolivia,Beni,12°57’55”S,63°29’48”W,-12.9653,-63.4967,169,168,Amazonia,Brazilian Shield Amazonia,5,Leeward,Tropical,Lowland,(Zonal),Seasonally dry,Evergreen,Broadleaved Forest,Tropical Lowland Seasonally dry Evergreen Broadleaved Forest
2584,AmzBO066,"Lago Bella Vista, bosque estacional de tierra firme",Bolivia,Santa Cruz,13°36’32”S,61°33’34”W,-13.6089,-61.5594,181,197,Amazonia,Brazilian Shield Amazonia,5,Leeward,Tropical,Lowland,(Zonal),Seasonally dry,Evergreen,Broadleaved Forest,Tropical Lowland Seasonally dry Evergreen Broadleaved Forest
2585,AmzBO067,"Piso Firme, bosque estacional de tierra firme",Bolivia,Beni,13°37’20”S,61°46’08”W,-13.6222,-61.7689,180,195,Amazonia,Brazilian Shield Amazonia,5,Leeward,Tropical,Lowland,(Zonal),Seasonally dry,Evergreen,Broadleaved Forest,Tropical Lowland Seasonally dry Evergreen Broadleaved Forest
3753,AmzBO068,"Reserva Kenneth Lee, bosque estacional de tierra firme",Bolivia,Beni,14°05’03”S,62°22’46”W,-14.0842,-62.3794,176,173,Amazonia,Brazilian Shield Amazonia,5,Leeward,Tropical,Lowland,(Zonal),Seasonally dry,Evergreen,Broadleaved Forest,Tropical Lowland Seasonally dry Evergreen Broadleaved Forest
2524,AmzBO069,"Noel Kempf, Arroyo Las Londras, bosque estacional de tierra firme",Bolivia,Santa Cruz,14°24’15”S,61°08’38”W,-14.4042,-61.1439,187,192,Amazonia,Brazilian Shield Amazonia,5,Leeward,Tropical,Lowland,(Zonal),Seasonally dry,Evergreen,Broadleaved Forest,Tropical Lowland Seasonally dry Evergreen Broadleaved Forest
2589,AmzBO070,"Noel Kempf, El Refugio, bosque estacional de tierra firme",Bolivia,Santa Cruz,14°45’35”S,61°01’26”W,-14.7597,-61.0239,199,198,Amazonia,Brazilian Shield Amazonia,5,Leeward,Tropical,Lowland,(Zonal),Seasonally dry,Evergreen,Broadleaved Forest,Tropical Lowland Seasonally dry Evergreen Broadleaved Forest
2591,AmzBO071,"Noel Kempf, San Roque, bosque estacional de tierra firme",Bolivia,Santa Cruz,14°59’59”S,61°13’17”W,-14.9997,-61.2214,190,210,Amazonia,Brazilian Shield Amazonia,5,Leeward,Tropical,Lowland,(Zonal),Seasonally dry,Evergreen,Broadleaved Forest,Tropical Lowland Seasonally dry Evergreen Broadleaved Forest
2587,AmzBO072,"Noel Kempf, Choré Aserradero, bosque estacional submontano",Bolivia,Santa Cruz,14°20’56”S,61°09’39”W,-14.3489,-61.1608,225,214,Amazonia,Brazilian Shield Amazonia,5,Leeward,Tropical,Lower hills,(Zonal),Seasonally dry,Evergreen,Broadleaved Forest,Tropical Lower hills Seasonally dry Evergreen Broadleaved Forest
2588,AmzBO073,"Noel Kempf, Cascada El Encanto, bosque estacional submontano",Bolivia,Santa Cruz,14°38’07”S,60°42’15”W,-14.6353,-60.7042,348,347,Amazonia,Brazilian Shield Amazonia,5,Leeward,Tropical,Lower hills,(Zonal),Seasonally dry,Evergreen,Broadleaved Forest,Tropical Lower hills Seasonally dry Evergreen Broadleaved Forest
739,AmzBO074,"Perseverancia, bosque estacional submontano",Bolivia,Santa Cruz,14°40’49”S,62°37’11”W,-14.6803,-62.6197,208,202,Amazonia,Brazilian Shield Amazonia,5,Leeward,Tropical,Lower hills,(Zonal),Seasonally dry,Evergreen,Broadleaved Forest,Tropical Lower hills Seasonally dry Evergreen Broadleaved Forest
2640,AmzBO075,"Reserva Rios Blanco y Negro, bosque estacional submontano",Bolivia,Santa Cruz,14°59’29”S,62°35’18”W,-14.9914,-62.5883,229,234,Amazonia,Brazilian Shield Amazonia,5,Leeward,Tropical,Lower hills,(Zonal),Seasonally dry,Evergreen,Broadleaved Forest,Tropical Lower hills Seasonally dry Evergreen Broadleaved Forest
742,AmzBO076,"La Chonta, bosque estacional submontano",Bolivia,Santa Cruz,15°40’49”S,62°45’17”W,-15.6803,-62.7547,373,362,Amazonia,Brazilian Shield Amazonia,5,Leeward,Tropical,Lower hills,(Zonal),Seasonally dry,Evergreen,Broadleaved Forest,Tropical Lower hills Seasonally dry Evergreen Broadleaved Forest
2527,AmzBO077,"Noel Kempf, Los Fierros, bosque estacional submontano",Bolivia,Santa Cruz,14°33’53”S,60°51’59”W,-14.5647,-60.8664,218,222,Amazonia,Brazilian Shield Amazonia,5,Leeward,Tropical,Lower tablelands,(Zonal),Seasonally dry,Semideciduous,Broadleaved Forest,Tropical Lower tablelands Seasonally dry Semideciduous Broadleaved Forest
2590,AmzBO078,"Noel Kempf, San Martín Aserradero, bosque estacional submontano",Bolivia,Santa Cruz,14°52’60”S,60°37’52”W,-14.8833,-60.6311,213,213,Amazonia,Brazilian Shield Amazonia,5,Leeward,Tropical,Lower tablelands,(Zonal),Seasonally dry,Semideciduous,Broadleaved Forest,Tropical Lower tablelands Seasonally dry Semideciduous Broadleaved Forest
2592,AmzBO079,"Acuario, bosque estacional submontano",Bolivia,Santa Cruz,15°14’46”S,61°14’34”W,-15.2461,-61.2428,255,249,Amazonia,Brazilian Shield Amazonia,5,Leeward,Tropical,Lower tablelands,(Zonal),Seasonally dry,Semideciduous,Broadleaved Forest,Tropical Lower tablelands Seasonally dry Semideciduous Broadleaved Forest
2525,AmzBO080,"Inselberg del Cerro Pelão, bosque enano rocoso",Bolivia,Santa Cruz,14°32’21”S,61°29’53”W,-14.5392,-61.4981,398,232,Amazonia,Brazilian Shield Amazonia,5,Leeward,Tropical,Lower hills,Rocky,Seasonally dry,Semideciduous,Broadleaved Dwarf-forest,Tropical Lower hills Rocky Seasonally dry Semideciduous Broadleaved Dwarf-forest
2639,AmzBO081,"Inselberg del Cerro Pelado, bosque enano rocoso",Bolivia,Santa Cruz,15°19’20”S,62°50’50”W,-15.3222,-62.8472,333,325,Amazonia,Brazilian Shield Amazonia,5,Leeward,Tropical,Lower hills,Rocky,Seasonally dry,Semideciduous,Broadleaved Dwarf-forest,Tropical Lower hills Rocky Seasonally dry Semideciduous Broadleaved Dwarf-forest
2533,AmzBO082,"Río Tequeje, bosque húmedo preandino",Bolivia,La Paz,13°58’40”S,68°03’19”W,-13.9778,-68.0553,559,690,Amazonia,Andean Piedmont Amazonia,8,Windward,Tropical,Sub-Andean,(Zonal),Rain,Evergreen,Broadleaved Forest,Tropical Sub-Andean Rain Evergreen Broadleaved Forest
2531,AmzBO083,"Río Yariapo, bosque húmedo preandino",Bolivia,La Paz,14°14’31”S,67°56’18”W,-14.2419,-67.9383,511,516,Amazonia,Andean Piedmont Amazonia,8,Windward,Tropical,Sub-Andean,(Zonal),Rain,Evergreen,Broadleaved Forest,Tropical Sub-Andean Rain Evergreen Broadleaved Forest
2537,AmzBO084,"Río Quendeque, bosque húmedo preandino",Bolivia,La Paz,14°58’34”S,67°47’53”W,-14.9761,-67.7981,344,381,Amazonia,Andean Piedmont Amazonia,8,Windward,Tropical,Sub-Andean,(Zonal),Rain,Evergreen,Broadleaved Forest,Tropical Sub-Andean Rain Evergreen Broadleaved Forest
2553,AmzBO085,"Parque Amboró, Río Saguayo, bosque húmedo preandino",Bolivia,Santa Cruz,17°32’03”S,63°54’32”W,-17.5342,-63.9089,484,379,Amazonia,Andean Piedmont Amazonia,8,Windward,Tropical,Sub-Andean,(Zonal),Rain,Evergreen,Broadleaved Forest,Tropical Sub-Andean Rain Evergreen Broadleaved Forest
2632,AmzBO086,"Alto Madidi, bosque húmedo subandino",Bolivia,La Paz,13°36’05”S,68°38’10”W,-13.6014,-68.6361,956,711,Amazonia,Andean Piedmont Amazonia,8,Windward,Tropical,Andean foothill,(Zonal),Rain,Evergreen,Broadleaved Forest,Tropical Andean foothill Rain Evergreen Broadleaved Forest
2544,AmzBO087,"Ixiamas, Maravillas, bosque húmedo subandino",Bolivia,La Paz,13°49’56”S,68°15’17”W,-13.8322,-68.2547,702,719,Amazonia,Andean Piedmont Amazonia,8,Windward,Tropical,Andean foothill,(Zonal),Rain,Evergreen,Broadleaved Forest,Tropical Andean foothill Rain Evergreen Broadleaved Forest
2605,AmzBO088,"Arroyo Negro, bosque húmedo subandino",Bolivia,La Paz,14°34’44”S,68°04’01”W,-14.5789,-68.0669,832,815,Amazonia,Andean Piedmont Amazonia,8,Windward,Tropical,Andean foothill,(Zonal),Rain,Evergreen,Broadleaved Forest,Tropical Andean foothill Rain Evergreen Broadleaved Forest
2547,AmzBO089,"Pilón Lajas, Cumbre Pilón, bosque húmedo subandino",Bolivia,Beni,15°14’19”S,66°59’07”W,-15.2386,-66.9853,630,389,Amazonia,Andean Piedmont Amazonia,8,Windward,Tropical,Andean foothill,(Zonal),Rain,Evergreen,Broadleaved Forest,Tropical Andean foothill Rain Evergreen Broadleaved Forest
2558,AmzBO090,"Serranía de Marimonos, bosque húmedo subandino",Bolivia,La Paz,15°31’44”S,67°20’31”W,-15.5289,-67.3419,640,662,Amazonia,Andean Piedmont Amazonia,8,Windward,Tropical,Andean foothill,(Zonal),Rain,Evergreen,Broadleaved Forest,Tropical Andean foothill Rain Evergreen Broadleaved Forest
3775,AmzBO091,"Peñon del Diablo, bosque húmedo subandino",Bolivia,Cochabamba,16°31’58”S,66°00’05”W,-16.5328,-66.0014,799,951,Amazonia,Andean Piedmont Amazonia,8,Windward,Tropical,Andean foothill,(Zonal),Rain,Evergreen,Broadleaved Forest,Tropical Andean foothill Rain Evergreen Broadleaved Forest
3776,AmzBO092,"Parque Nacional Carrasco, bosque húmedo subandino",Bolivia,Cochabamba,17°25’12”S,64°56’32”W,-17.42,-64.9422,913,1125,Amazonia,Andean Piedmont Amazonia,8,Windward,Tropical,Andean foothill,(Zonal),Rain,Evergreen,Broadleaved Forest,Tropical Andean foothill Rain Evergreen Broadleaved Forest
3757,AmzBO093,"Amboró, bosque húmedo subandino",Bolivia,Santa Cruz,17°36’44”S,64°07’55”W,-17.6122,-64.1319,781,1030,Amazonia,Andean Piedmont Amazonia,8,Windward,Tropical,Andean foothill,(Zonal),Rain,Evergreen,Broadleaved Forest,Tropical Andean foothill Rain Evergreen Broadleaved Forest
741,AmzBO094,"Macuñucú, bosque húmedo subandino",Bolivia,Santa Cruz,17°43’39”S,63°36’45”W,-17.7275,-63.6125,682,580,Amazonia,Andean Piedmont Amazonia,8,Windward,Tropical,Andean foothill,(Zonal),Rain,Evergreen,Broadleaved Forest,Tropical Andean foothill Rain Evergreen Broadleaved Forest
2614,AmzBO095,"Alto Madidi, bosque hiper-húmedo andino",Bolivia,La Paz,13°51’10”S,68°34’13”W,-13.8528,-68.5703,1284,1085,Amazonia,Andean Piedmont Amazonia,8,Windward,Tropical,Lower Andean,(Zonal),Rain,Evergreen,Broadleaved Forest,Tropical Lower Andean Rain Evergreen Broadleaved Forest
2536,AmzBO096,"Serranía Tumupasa, bosque hiper-húmedo andino",Bolivia,La Paz,14°09’08”S,67°55’09”W,-14.1522,-67.9192,1106,914,Amazonia,Andean Piedmont Amazonia,8,Windward,Tropical,Lower Andean,(Zonal),Rain,Evergreen,Broadleaved Forest,Tropical Lower Andean Rain Evergreen Broadleaved Forest
2538,AmzBO097,"Mamacona, bosque hiper-húmedo andino",Bolivia,La Paz,14°26’02”S,68°11’47”W,-14.4339,-68.1964,1596,1624,Amazonia,Andean Piedmont Amazonia,8,Windward,Tropical,Lower Andean,(Zonal),Rain,Evergreen,Broadleaved Forest,Tropical Lower Andean Rain Evergreen Broadleaved Forest
2603,AmzBO098,"Apolobamba, Amarete, bosque hiper-húmedo andino",Bolivia,La Paz,15°12’23”S,68°41’41”W,-15.2064,-68.6947,1607,2284,Amazonia,Andean Piedmont Amazonia,8,Windward,Tropical,Lower Andean,(Zonal),Rain,Evergreen,Broadleaved Forest,Tropical Lower Andean Rain Evergreen Broadleaved Forest
2550,AmzBO099,"Tipuaní, bosque hiper-húmedo andino",Bolivia,La Paz,15°35’47”S,68°01’32”W,-15.5964,-68.0256,1105,1210,Amazonia,Andean Piedmont Amazonia,8,Windward,Tropical,Lower Andean,(Zonal),Rain,Evergreen,Broadleaved Forest,Tropical Lower Andean Rain Evergreen Broadleaved Forest
2612,AmzBO100,"Incahuara, bosque hiper-húmedo andino",Bolivia,La Paz,15°57’48”S,67°37’23”W,-15.9633,-67.6231,1581,1478,Amazonia,Andean Piedmont Amazonia,8,Windward,Tropical,Lower Andean,(Zonal),Rain,Evergreen,Broadleaved Forest,Tropical Lower Andean Rain Evergreen Broadleaved Forest
3765,AmzBO101,"Río Zongo, bosque hiper-húmedo andino",Bolivia,La Paz,16°06’01”S,68°03’40”W,-16.1003,-68.0611,1865,2404,Amazonia,Andean Piedmont Amazonia,8,Windward,Tropical,Lower Andean,(Zonal),Rain,Evergreen,Broadleaved Forest,Tropical Lower Andean Rain Evergreen Broadleaved Forest
1806,AmzBO102,"Laguna Carachupa, bosque hiper-húmedo andino",Bolivia,Cochabamba,16°13’58”S,66°24’54”W,-16.2328,-66.415,1330,1164,Amazonia,Andean Piedmont Amazonia,8,Windward,Tropical,Lower Andean,(Zonal),Rain,Evergreen,Broadleaved Forest,Tropical Lower Andean Rain Evergreen Broadleaved Forest
3778,AmzBO103,"Tuta Wallpas, bosque hiper-húmedo andino",Bolivia,Cochabamba,16°31’58”S,65°58’17”W,-16.5328,-65.9714,1399,701,Amazonia,Andean Piedmont Amazonia,8,Windward,Tropical,Lower Andean,(Zonal),Rain,Evergreen,Broadleaved Forest,Tropical Lower Andean Rain Evergreen Broadleaved Forest
3779,AmzBO104,"Parque Nacional Carrasco, bosque hiper-húmedo andino",Bolivia,Cochabamba,17°30’46”S,65°00’25”W,-17.5128,-65.0069,1859,1796,Amazonia,Andean Piedmont Amazonia,8,Windward,Tropical,Lower Andean,(Zonal),Rain,Evergreen,Broadleaved Forest,Tropical Lower Andean Rain Evergreen Broadleaved Forest
3759,AmzBO105,"Amboró, bosque hiper-húmedo andino",Bolivia,Santa Cruz,17°41’38”S,64°20’37”W,-17.6939,-64.3436,1705,1670,Amazonia,Andean Piedmont Amazonia,8,Windward,Tropical,Lower Andean,(Zonal),Rain,Evergreen,Broadleaved Forest,Tropical Lower Andean Rain Evergreen Broadleaved Forest
763,AmzBO106,"Piedramesa, bosque hiper-húmedo andino",Bolivia,Santa Cruz,17°49’52”S,64°01’20”W,-17.8311,-64.0222,1454,1157,Amazonia,Andean Piedmont Amazonia,8,Windward,Tropical,Lower Andean,(Zonal),Rain,Evergreen,Broadleaved Forest,Tropical Lower Andean Rain Evergreen Broadleaved Forest
2598,CerBO001,"Aeropista Flor de Oro, bosque estacional ribereño",Bolivia/Brasil,Santa Cruz/Rondônia,13°32’50”S,61°03’35”W,-13.5472,-61.0597,183,173,Cerrado,Southern Amazonian Cerrados,1,Leeward,Tropical,Lowland,Riverine,Seasonally dry,Semideciduous,Broadleaved Forest,Tropical Lowland Riverine Seasonally dry Semideciduous Broadleaved Forest
2593,CerBO002,"Cerro Las Torres, bosque estacional ribereño",Bolivia/Brasil,Santa Cruz/Rondônia,13°40’14”S,60°48’21”W,-13.6706,-60.8058,195,197,Cerrado,Southern Amazonian Cerrados,1,Leeward,Tropical,Lowland,Riverine,Seasonally dry,Semideciduous,Broadleaved Forest,Tropical Lowland Riverine Seasonally dry Semideciduous Broadleaved Forest
2595,CerBO003,"Noel Kempf, Monte Cristo, bosque estacional ribereño",Bolivia,Santa Cruz,14°42’40”S,61°09’15”W,-14.7111,-61.1542,183,176,Cerrado,Southern Amazonian Cerrados,1,Leeward,Tropical,Lowland,Riverine,Seasonally dry,Semideciduous,Broadleaved Forest,Tropical Lowland Riverine Seasonally dry Semideciduous Broadleaved Forest
2601,CerBO004,"Noel Kempf, Monte Verde, bosque chiquitano ribereño",Bolivia,Santa Cruz,14°54’59”S,61°06’37”W,-14.9164,-61.1103,183,187,Cerrado,Southern Amazonian Cerrados,1,Leeward,Tropical,Lowland,Riverine,Seasonally dry,Semideciduous,Broadleaved Forest,Tropical Lowland Riverine Seasonally dry Semideciduous Broadleaved Forest
2594,CerBO005,"Meseta de Huanchaca Nord, bosque estacional ribereño",Bolivia,Santa Cruz,13°54’49”S,60°48’58”W,-13.9136,-60.8161,460,497,Cerrado,Southern Amazonian Cerrados,1,Leeward,Tropical,Lower tablelands,Riverine,Seasonally dry,Semideciduous,Broadleaved Forest,Tropical Lower tablelands Riverine Seasonally dry Semideciduous Broadleaved Forest
2586,CerBO006,"Noel Kempf y Ricardo Franco, Río Verde, bosque estacional ribereño",Bolivia/Brasil,Santa Cruz/Mato Grosso,14°17’43”S,60°27’37”W,-14.2953,-60.4603,343,366,Cerrado,Southern Amazonian Cerrados,1,Leeward,Tropical,Lower tablelands,Riverine,Seasonally dry,Semideciduous,Broadleaved Forest,Tropical Lower tablelands Riverine Seasonally dry Semideciduous Broadleaved Forest
2526,CerBO007,"Meseta de Huanchaca Sur, bosque estacional ribereño",Bolivia,Santa Cruz,14°31’37”S,60°44’02”W,-14.5269,-60.7339,742,731,Cerrado,Southern Amazonian Cerrados,1,Leeward,Tropical,Upper tablelands,Riverine,Seasonally dry,Semideciduous,Broadleaved Forest,Tropical Upper tablelands Riverine Seasonally dry Semideciduous Broadleaved Forest
2596,CerBO008,"Noel Kempf, Las Gamas, bosque estacional ribereño",Bolivia,Santa Cruz,14°48’24”S,60°23’17”W,-14.8067,-60.3881,844,807,Cerrado,Southern Amazonian Cerrados,1,Leeward,Tropical,Upper tablelands,Riverine,Seasonally dry,Semideciduous,Broadleaved Forest,Tropical Upper tablelands Riverine Seasonally dry Semideciduous Broadleaved Forest
2581,CerBO009,"Cerro Las Torres, cerrado boscoso mesotrófico",Bolivia/Brasil,Santa Cruz/Rondônia,13°39’05”S,60°49’36”W,-13.6514,-60.8267,231,227,Cerrado,Southern Amazonian Cerrados,1,Leeward,Tropical,Lower tablelands,Mesotrophic,Seasonally dry,Semideciduous,Forested Savanna,Tropical Lower tablelands Mesotrophic Seasonally dry Semideciduous Forested Savanna
2580,CerBO010,"Cerro Las Torres, Enano, cerrado boscoso distrófico",Bolivia,Santa Cruz,13°38’39”S,60°53’31”W,-13.6442,-60.8919,530,444,Cerrado,Southern Amazonian Cerrados,1,Leeward,Tropical,Lower tablelands,Dystrophic,Seasonally dry,Semideciduous,Forested Savanna,Tropical Lower tablelands Seasonally dry Semideciduous Forested Savanna
6528,CerBO011,"Reserva Kenneth Lee, cerrado boscoso cenagoso",Bolivia,Beni,13°37’33”S,63°06’32”W,-13.6258,-63.1089,157,157,Cerrado,Southern Amazonian Cerrados,1,Leeward,Tropical,Lowland,Floodplain,Seasonally dry,Semideciduous,Forested Savanna,Tropical Lowland Floodplain Seasonally dry Semideciduous Forested Savanna
6527,CerBO012,"Porvenir, cerrado boscoso cenagoso",Bolivia,Santa Cruz,13°57’22”S,61°32’45”W,-13.9561,-61.5458,173,181,Cerrado,Southern Amazonian Cerrados,1,Leeward,Tropical,Lowland,Floodplain,Seasonally dry,Semideciduous,Forested Savanna,Tropical Lowland Floodplain Seasonally dry Semideciduous Forested Savanna
2624,CerBO013,"Meseta de Huanchaca, cerrado",Bolivia,Santa Cruz,14°02’14”S,60°32’46”W,-14.0372,-60.5461,626,458,Cerrado,Southern Amazonian Cerrados,1,Leeward,Tropical,Upper tablelands,(Zonal),Seasonally dry,Semideciduous,Parkland Savanna,Tropical Upper tablelands Seasonally dry Semideciduous Parkland Savanna
2582,CerBO014,"Noel Kempf, Las Gamas, cerrado rocoso",Bolivia,Santa Cruz,14°47’49”S,60°21’41”W,-14.7969,-60.3614,714,718,Cerrado,Southern Amazonian Cerrados,1,Leeward,Tropical,Upper tablelands,Rocky,Seasonally dry,Semideciduous,Parkland Savanna,Tropical Upper tablelands Rocky Seasonally dry Semideciduous Parkland Savanna
2583,CerBO015,"Aeropista Flor de Oro, cerrado cenagoso de termiteros",Bolivia/Brasil,Santa Cruz/Rondônia,13°34’43”S,60°59’59”W,-13.5786,-60.9997,172,175,Cerrado,Southern Amazonian Cerrados,1,Leeward,Tropical,Lowland,Floodplain hummocks,Seasonally dry,Evergreen,Parkland Savanna,Tropical Lowland Floodplain hummocks Seasonally dry Evergreen Parkland Savanna
2623,CerBO016,"Noel Kempf, El Refugio, cerrado cenagoso de termiteros",Bolivia,Santa Cruz,14°50’03”S,60°59’25”W,-14.8342,-60.9903,179,178,Cerrado,Southern Amazonian Cerrados,1,Leeward,Tropical,Lowland,Floodplain hummocks,Seasonally dry,Evergreen,Parkland Savanna,Tropical Lowland Floodplain hummocks Seasonally dry Evergreen Parkland Savanna
758,CerBO017,"Puerto Quijarro, bosque seco",Bolivia,Santa Cruz,19°00’54”S,57°46’15”W,-19.015,-57.7708,238,227,Cerrado,Pantanal Wetlands,4,Leeward,Tropical,Lower tablelands,(Zonal),Seasonally dry,Deciduous,Broadleaved Forest,Tropical Lower tablelands Seasonally dry Deciduous Broadleaved Forest
740,CerBO018,"San Matías, bosque deciduo inundable",Bolivia,Santa Cruz,16°26’24”S,58°27’35”W,-16.44,-58.4597,122,111,Cerrado,Pantanal Wetlands,4,Leeward,Tropical,Lowland,Floodplain,Seasonally dry,Deciduous,Broadleaved Forest,Tropical Lowland Floodplain Seasonally dry Deciduous Broadleaved Forest
1757,CerBO019,"Cerro Mutún, cerrado rocoso",Bolivia/Brasil,Santa Cruz/Mato Grosso do Sul,19°11’49”S,57°52’34”W,-19.1969,-57.8761,726,489,Cerrado,Pantanal Wetlands,4,Leeward,Tropical,Upper tablelands,Rocky,Seasonally dry,Semideciduous,Parkland Savanna,Tropical Upper tablelands Rocky Seasonally dry Semideciduous Parkland Savanna
6529,CerBO020,"San Matías, cerrado cenagoso de termiteros",Bolivia,Santa Cruz,16°24’53”S,59°01’18”W,-16.4147,-59.0217,127,128,Cerrado,Pantanal Wetlands,4,Leeward,Tropical,Lowland,Floodplain hummocks,Seasonally dry,Evergreen,Parkland Savanna,Tropical Lowland Floodplain hummocks Seasonally dry Evergreen Parkland Savanna
1803,CerBO021,"Ñuflo de Chávez, Sítio Inpa, bosque semi-decíduo chiquitano",Bolivia,Santa Cruz,16°12’56”S,61°37’35”W,-16.2156,-61.6264,427,424,Cerrado,Chiquitano Woodlands,5,Leeward,Tropical,Lower tablelands,(Zonal),Seasonally dry,Semideciduous,Broadleaved Forest,Tropical Lower tablelands Seasonally dry Semideciduous Broadleaved Forest
743,CerBO022,"Las Trancas, bosque semi-decíduo chiquitano",Bolivia,Santa Cruz,16°31’15”S,61°50’48”W,-16.5208,-61.8467,454,459,Cerrado,Chiquitano Woodlands,5,Leeward,Tropical,Lower tablelands,(Zonal),Seasonally dry,Semideciduous,Broadleaved Forest,Tropical Lower tablelands Seasonally dry Semideciduous Broadleaved Forest
744,CerBO023,"San Rafael, bosque semi-decíduo chiquitano",Bolivia,Santa Cruz,16°39’22”S,60°06’23”W,-16.6561,-60.1064,248,253,Cerrado,Chiquitano Woodlands,5,Leeward,Tropical,Lower tablelands,(Zonal),Seasonally dry,Semideciduous,Broadleaved Forest,Tropical Lower tablelands Seasonally dry Semideciduous Broadleaved Forest
745,CerBO024,"San Miguelito, bosque semi-decíduo chiquitano",Bolivia,Santa Cruz,17°02’03”S,61°51’37”W,-17.0342,-61.8603,314,271,Cerrado,Chiquitano Woodlands,5,Leeward,Tropical,Lower tablelands,(Zonal),Seasonally dry,Semideciduous,Broadleaved Forest,Tropical Lower tablelands Seasonally dry Semideciduous Broadleaved Forest
752,CerBO025,"Terevinto, bosque semi-decíduo chiquitano",Bolivia,Santa Cruz,17°41’59”S,63°23’03”W,-17.6997,-63.3842,406,418,Cerrado,Chiquitano Woodlands,5,Leeward,Tropical,Lower tablelands,(Zonal),Seasonally dry,Semideciduous,Broadleaved Forest,Tropical Lower tablelands Seasonally dry Semideciduous Broadleaved Forest
746,CerBO026,"Santa Cruz de la Sierra, bosque semi-decíduo chiquitano",Bolivia,Santa Cruz,17°46’48”S,63°03’54”W,-17.78,-63.065,399,386,Cerrado,Chiquitano Woodlands,5,Leeward,Tropical,Lower tablelands,(Zonal),Seasonally dry,Semideciduous,Broadleaved Forest,Tropical Lower tablelands Seasonally dry Semideciduous Broadleaved Forest
523,CerBO027,"San José de Chiquitos, bosque semi-decíduo chiquitano",Bolivia,Santa Cruz,18°00’01”S,60°33’55”W,-18.0003,-60.5653,445,427,Cerrado,Chiquitano Woodlands,5,Leeward,Tropical,Lower tablelands,(Zonal),Seasonally dry,Semideciduous,Broadleaved Forest,Tropical Lower tablelands Seasonally dry Semideciduous Broadleaved Forest
749,CerBO028,"Santiago de Chiquitos, bosque semi-decíduo chiquitano",Bolivia,Santa Cruz,18°19’01”S,59°36’54”W,-18.3169,-59.615,718,724,Cerrado,Chiquitano Woodlands,5,Leeward,Tropical,Upper tablelands,(Zonal),Seasonally dry,Semideciduous,Broadleaved Forest,Tropical Upper tablelands Seasonally dry Semideciduous Broadleaved Forest
3929,CerBO029,"Santa Ana de Chiquitos, bosque decíduo chiquitano",Bolivia,Santa Cruz,18°41’33”S,58°44’08”W,-18.6925,-58.7356,179,163,Cerrado,Chiquitano Woodlands,5,Leeward,Tropical,Lowland,(Zonal),Seasonally dry,Deciduous,Broadleaved Forest,Tropical Lowland Seasonally dry Deciduous Broadleaved Forest
2556,CerBO030,"Quiapaca, bosque decíduo chiquitano",Bolivia,Santa Cruz,18°15’40”S,59°30’19”W,-18.2611,-59.5053,239,245,Cerrado,Chiquitano Woodlands,5,Leeward,Tropical,Lower tablelands,(Zonal),Seasonally dry,Deciduous,Broadleaved Forest,Tropical Lower tablelands Seasonally dry Deciduous Broadleaved Forest
747,CerBO031,"Germán Busch, bosque decíduo chiquitano",Bolivia,Santa Cruz,17°54’55”S,59°15’17”W,-17.9153,-59.2547,698,594,Cerrado,Chiquitano Woodlands,5,Leeward,Tropical,Upper tablelands,(Zonal),Seasonally dry,Deciduous,Broadleaved Forest,Tropical Upper tablelands Seasonally dry Deciduous Broadleaved Forest
748,CerBO032,"Santo Corazón, bosque decíduo chiquitano",Bolivia,Santa Cruz,18°06’50”S,58°57’38”W,-18.1139,-58.9606,689,629,Cerrado,Chiquitano Woodlands,5,Leeward,Tropical,Upper tablelands,(Zonal),Seasonally dry,Deciduous,Broadleaved Forest,Tropical Upper tablelands Seasonally dry Deciduous Broadleaved Forest
750,CerBO033,"Ñuflo de Chávez, Concepcion, cerrado boscoso mesotrófico",Bolivia,Santa Cruz,16°04’18”S,62°00’43”W,-16.0717,-62.0119,514,496,Cerrado,Chiquitano Woodlands,5,Leeward,Tropical,Lower tablelands,Mesotrophic,Seasonally dry,Semideciduous,Forested Savanna,Tropical Lower tablelands Mesotrophic Seasonally dry Semideciduous Forested Savanna
753,CerBO034,"Serranía de Chochis, cerrado boscoso mesotrófico",Bolivia,Santa Cruz,18°09’54”S,60°03’59”W,-18.165,-60.0664,438,433,Cerrado,Chiquitano Woodlands,5,Leeward,Tropical,Lower tablelands,Mesotrophic,Seasonally dry,Semideciduous,Forested Savanna,Tropical Lower tablelands Mesotrophic Seasonally dry Semideciduous Forested Savanna
1760,CerBO035,"Campamento Tucavaca, cerrado boscoso mesotrófico",Bolivia,Santa Cruz,18°11’15”S,60°51’19”W,-18.1875,-60.8553,310,308,Cerrado,Chiquitano Woodlands,5,Leeward,Tropical,Lower tablelands,Mesotrophic,Seasonally dry,Semideciduous,Forested Savanna,Tropical Lower tablelands Mesotrophic Seasonally dry Semideciduous Forested Savanna
751,CerBO036,"Sierra de San Pablo, cerrado boscoso mesotrófico",Bolivia,Santa Cruz,17°06’28”S,61°41’34”W,-17.1078,-61.6928,656,495,Cerrado,Chiquitano Woodlands,5,Leeward,Tropical,Upper tablelands,Mesotrophic,Seasonally dry,Semideciduous,Forested Savanna,Tropical Upper tablelands Mesotrophic Seasonally dry Semideciduous Forested Savanna
1761,CerBO037,"San Ignacio de Velasco, cerrado",Bolivia,Santa Cruz,16°07’59”S,60°53’31”W,-16.1331,-60.8919,344,348,Cerrado,Chiquitano Woodlands,5,Leeward,Tropical,Lower tablelands,(Zonal),Seasonally dry,Semideciduous,Parkland Savanna,Tropical Lower tablelands Seasonally dry Semideciduous Parkland Savanna
1804,CerBO038,"Serranía de Santiago, cerrado rocoso",Bolivia,Santa Cruz,18°23’34”S,59°29’23”W,-18.3928,-59.4897,577,538,Cerrado,Chiquitano Woodlands,5,Leeward,Tropical,Lower tablelands,Rocky,Seasonally dry,Semideciduous,Parkland Savanna,Tropical Lower tablelands Rocky Seasonally dry Semideciduous Parkland Savanna
2960,ChaBO001,"Palmar de Las Islas, quebrachal",Bolivia,Santa Cruz,19°24’59”S,60°33’18”W,-19.4164,-60.555,219,212,Gran Chaco,Chaco Húmedo Wetlands,2,Leeward,Tropical,Lower hills,Waterlogging,Seasonally dry,Deciduous,Broadleaved Forest,Tropical Lower hills Waterlogging Seasonally dry Deciduous Broadleaved Forest
754,ChaBO002,"San Lorenzo, bosque decíduo chaqueño",Bolivia,Santa Cruz,17°08’04”S,61°58’20”W,-17.1344,-61.9722,265,259,Gran Chaco,Chaco Seco Drylands,3,Leeward,Tropical,Lower tablelands,(Zonal),Seasonally dry,Deciduous,Broadleaved Forest,Tropical Lower tablelands Seasonally dry Deciduous Broadleaved Forest
755,ChaBO003,"Limoncito, bosque decíduo chaqueño",Bolivia,Santa Cruz,18°15’09”S,59°55’58”W,-18.2525,-59.9328,329,344,Gran Chaco,Chaco Seco Drylands,3,Leeward,Tropical,Lower tablelands,(Zonal),Seasonally dry,Deciduous,Broadleaved Forest,Tropical Lower tablelands Seasonally dry Deciduous Broadleaved Forest
756,ChaBO004,"Gasoducto en Tucavaca, bosque decíduo chaqueño",Bolivia,Santa Cruz,18°30’47”S,60°49’26”W,-18.5131,-60.8239,305,310,Gran Chaco,Chaco Seco Drylands,3,Leeward,Tropical,Lower tablelands,(Zonal),Seasonally dry,Deciduous,Broadleaved Forest,Tropical Lower tablelands Seasonally dry Deciduous Broadleaved Forest
3755,ChaBO005,"Otuquis, bosque decíduo chaqueño",Bolivia,Santa Cruz,19°11’54”S,58°53’29”W,-19.1983,-58.8914,210,203,Gran Chaco,Chaco Seco Drylands,3,Leeward,Tropical,Lower tablelands,(Zonal),Seasonally dry,Deciduous,Broadleaved Forest,Tropical Lower tablelands Seasonally dry Deciduous Broadleaved Forest
2959,ChaBO006,"Cerro San Miguel, bosque decíduo chaqueño",Bolivia,Santa Cruz,19°17’37”S,60°38’08”W,-19.2936,-60.6356,502,352,Gran Chaco,Chaco Seco Drylands,3,Leeward,Tropical,Lower tablelands,(Zonal),Seasonally dry,Deciduous,Broadleaved Forest,Tropical Lower tablelands Seasonally dry Deciduous Broadleaved Forest
757,ChaBO007,"Arenales de Guanacos, chaco seco de médanos",Bolivia,Santa Cruz,18°54’54”S,63°13’20”W,-18.915,-63.2222,463,491,Gran Chaco,Chaco Seco Drylands,3,Leeward,Tropical,Lower hills,(Zonal),Semi-arid,Deciduous,Stiff-leaved Dwarf-forest,Tropical Lower hills Semi-arid Deciduous Stiff-leaved Dwarf-forest
615,ChaBO008,"Izozog, chaco seco",Bolivia,Santa Cruz,19°04’03”S,62°25’22”W,-19.0675,-62.4228,356,357,Gran Chaco,Chaco Seco Drylands,3,Leeward,Tropical,Lower hills,(Zonal),Semi-arid,Deciduous,Stiff-leaved Dwarf-forest,Tropical Lower hills Semi-arid Deciduous Stiff-leaved Dwarf-forest
759,ChaBO009,"Kaa-Iya, chaco seco",Bolivia,Santa Cruz,19°04’10”S,61°26’53”W,-19.0694,-61.4481,376,368,Gran Chaco,Chaco Seco Drylands,3,Leeward,Tropical,Lower hills,(Zonal),Semi-arid,Deciduous,Stiff-leaved Dwarf-forest,Tropical Lower hills Semi-arid Deciduous Stiff-leaved Dwarf-forest
3789,ChaBO010,"Hito III Villazon, chaco seco",Bolivia,Chuquisaca,20°35’04”S,62°18’09”W,-20.5844,-62.3025,385,390,Gran Chaco,Chaco Seco Drylands,3,Leeward,Tropical,Lower hills,(Zonal),Semi-arid,Deciduous,Stiff-leaved Dwarf-forest,Tropical Lower hills Semi-arid Deciduous Stiff-leaved Dwarf-forest
3792,ChaBO011,"Cabo Juán, chaco seco",Bolivia,Tarija,21°16’54”S,62°41’43”W,-21.2817,-62.6953,338,340,Gran Chaco,Chaco Seco Drylands,3,Leeward,Tropical,Lower hills,(Zonal),Semi-arid,Deciduous,Stiff-leaved Dwarf-forest,Tropical Lower hills Semi-arid Deciduous Stiff-leaved Dwarf-forest
761,ChaBO012,"Charagua, chaco de serranía",Bolivia,Santa Cruz,19°46’31”S,63°12’27”W,-19.7753,-63.2075,847,1038,Gran Chaco,Chaco Seco Drylands,3,Leeward,Tropical,Upper hills,Rocky,Semi-arid,Deciduous,Stiff-leaved Dwarf-forest,Tropical Upper hills Rocky Semi-arid Deciduous Stiff-leaved Dwarf-forest
762,ChaBO013,"Camirí, chaco de serranía",Bolivia,Santa Cruz,20°07’12”S,63°25’41”W,-20.12,-63.4281,808,827,Gran Chaco,Chaco Seco Drylands,3,Leeward,Tropical,Upper hills,Rocky,Semi-arid,Deciduous,Stiff-leaved Dwarf-forest,Tropical Upper hills Rocky Semi-arid Deciduous Stiff-leaved Dwarf-forest
3788,ChaBO014,"La Muela del Diablo, chaco de serranía",Bolivia,Chuquisaca,20°38’09”S,63°18’01”W,-20.6358,-63.3003,807,816,Gran Chaco,Chaco Seco Drylands,3,Leeward,Tropical,Upper hills,Rocky,Semi-arid,Deciduous,Stiff-leaved Dwarf-forest,Tropical Upper hills Rocky Semi-arid Deciduous Stiff-leaved Dwarf-forest
616,ChaBO015,"Aguarague, chaco de serranía",Bolivia,Tarija,21°43’54”S,63°37’46”W,-21.7317,-63.6294,912,1160,Gran Chaco,Chaco Seco Drylands,3,Leeward,Tropical,Upper hills,Rocky,Semi-arid,Deciduous,Stiff-leaved Dwarf-forest,Tropical Upper hills Rocky Semi-arid Deciduous Stiff-leaved Dwarf-forest
3762,ChaBO016,"Cerro Yaraeta, chaco de serranía",Bolivia,Santa Cruz,19°22’08”S,63°20’05”W,-19.3689,-63.3347,1319,1199,Gran Chaco,Chaco Seco Drylands,3,Leeward,Tropical,Lower highlands,Rocky,Semi-arid,Deciduous,Stiff-leaved Dwarf-forest,Tropical Lower highlands Rocky Semi-arid Deciduous Stiff-leaved Dwarf-forest
3787,ChaBO017,"Macharetí, chaco de serranía",Bolivia,Chuquisaca,20°52’06”S,63°25’23”W,-20.8683,-63.4231,1013,1113,Gran Chaco,Chaco Seco Drylands,3,Leeward,Tropical,Lower highlands,Rocky,Semi-arid,Deciduous,Stiff-leaved Dwarf-forest,Tropical Lower highlands Rocky Semi-arid Deciduous Stiff-leaved Dwarf-forest
2540,AndBO001,"Maipacocona, bosque nublado andino",Bolivia,La Paz,14°28’52”S,68°17’46”W,-14.4811,-68.2961,2372,2219,Northern Andean,Andean Eastern Cordillera,3,Windward,Tropical,Mid Andean,(Zonal),Cloud,Evergreen,Broadleaved Forest,Tropical Mid Andean Cloud Evergreen Broadleaved Forest
3766,AndBO002,"Sumata, bosque nublado andino",Bolivia,La Paz,15°40’07”S,68°23’59”W,-15.6686,-68.3997,2401,2788,Northern Andean,Andean Eastern Cordillera,3,Windward,Tropical,Mid Andean,(Zonal),Cloud,Evergreen,Broadleaved Forest,Tropical Mid Andean Cloud Evergreen Broadleaved Forest
3767,AndBO003,"El Chorro, bosque nublado andino",Bolivia,La Paz,16°12’23”S,67°57’17”W,-16.2064,-67.9547,2354,2630,Northern Andean,Andean Eastern Cordillera,3,Windward,Tropical,Mid Andean,(Zonal),Cloud,Evergreen,Broadleaved Forest,Tropical Mid Andean Cloud Evergreen Broadleaved Forest
3780,AndBO004,"Atispaya, bosque nublado andino",Bolivia,Cochabamba,16°35’23”S,66°39’53”W,-16.5897,-66.6647,2407,2932,Northern Andean,Andean Eastern Cordillera,3,Windward,Tropical,Mid Andean,(Zonal),Cloud,Evergreen,Broadleaved Forest,Tropical Mid Andean Cloud Evergreen Broadleaved Forest
3781,AndBO005,"Coraní Pampa, bosque nublado andino",Bolivia,Cochabamba,17°07’46”S,65°54’41”W,-17.1294,-65.9114,2761,2831,Northern Andean,Andean Eastern Cordillera,3,Windward,Tropical,Mid Andean,(Zonal),Cloud,Evergreen,Broadleaved Forest,Tropical Mid Andean Cloud Evergreen Broadleaved Forest
766,AndBO006,"Amboró, bosque nublado andino",Bolivia,Santa Cruz,17°47’32”S,64°23’13”W,-17.7922,-64.3869,2213,2000,Northern Andean,Andean Eastern Cordillera,3,Windward,Tropical,Mid Andean,(Zonal),Cloud,Evergreen,Broadleaved Forest,Tropical Mid Andean Cloud Evergreen Broadleaved Forest
2549,AndBO007,"Cerro Yanomayo, bosque enano andino",Bolivia,La Paz,14°22’13”S,68°26’24”W,-14.3703,-68.44,2022,1662,Northern Andean,Andean Eastern Cordillera,3,Windward,Tropical,Mid Andean,Rocky,Cloud,Evergreen,Broadleaved Dwarf-forest,Tropical Mid Andean Rocky Cloud Evergreen Broadleaved Dwarf-forest
3768,AndBO008,"Achapampa, bosque enano andino",Bolivia,La Paz,15°27’03”S,68°30’51”W,-15.4508,-68.5142,2736,2511,Northern Andean,Andean Eastern Cordillera,3,Windward,Tropical,Mid Andean,Rocky,Cloud,Evergreen,Broadleaved Dwarf-forest,Tropical Mid Andean Rocky Cloud Evergreen Broadleaved Dwarf-forest
3769,AndBO009,"Quime, bosque enano andino",Bolivia,La Paz,16°57’21”S,67°12’06”W,-16.9558,-67.2017,2776,3553,Northern Andean,Andean Eastern Cordillera,3,Windward,Tropical,Mid Andean,Rocky,Cloud,Evergreen,Broadleaved Dwarf-forest,Tropical Mid Andean Rocky Cloud Evergreen Broadleaved Dwarf-forest
2555,AndBO010,"Cerro Bravo, bosque enano andino",Bolivia,Santa Cruz,17°48’58”S,64°32’53”W,-17.8161,-64.5481,2518,2533,Northern Andean,Andean Eastern Cordillera,3,Windward,Tropical,Mid Andean,Rocky,Cloud,Evergreen,Broadleaved Dwarf-forest,Tropical Mid Andean Rocky Cloud Evergreen Broadleaved Dwarf-forest
2539,AndBO011,"Tambo Quemado, bosque enano alto-andino",Bolivia,La Paz,14°41’02”S,68°58’22”W,-14.6839,-68.9728,3513,3511,Northern Andean,Andean Eastern Cordillera,3,Windward,Tropical,Upper Andean,Rocky,Cloud,Evergreen,Broadleaved Dwarf-forest,Tropical Upper Andean Rocky Cloud Evergreen Broadleaved Dwarf-forest
2604,AndBO012,"Apolobamba, Pelechuco, bosque enano alto-andino",Bolivia,La Paz,14°48’34”S,69°03’14”W,-14.8094,-69.0539,3364,3893,Northern Andean,Andean Eastern Cordillera,3,Windward,Tropical,Upper Andean,Rocky,Cloud,Evergreen,Broadleaved Dwarf-forest,Tropical Upper Andean Rocky Cloud Evergreen Broadleaved Dwarf-forest
2613,AndBO013,"Carretera de La Muerte, bosque enano alto-andino",Bolivia,La Paz,16°17’18”S,67°50’46”W,-16.2883,-67.8461,3134,2766,Northern Andean,Andean Eastern Cordillera,3,Windward,Tropical,Upper Andean,Rocky,Cloud,Evergreen,Broadleaved Dwarf-forest,Tropical Upper Andean Rocky Cloud Evergreen Broadleaved Dwarf-forest
3782,AndBO014,"Pajchanti, bosque enano alto-andino",Bolivia,Cochabamba,17°03’27”S,66°50’45”W,-17.0575,-66.8458,3318,3270,Northern Andean,Andean Eastern Cordillera,3,Windward,Tropical,Upper Andean,Rocky,Cloud,Evergreen,Broadleaved Dwarf-forest,Tropical Upper Andean Rocky Cloud Evergreen Broadleaved Dwarf-forest
3771,AndBO015,"Challapampa, bosque enano del páramo yungueño",Bolivia,La Paz,15°43’52”S,68°39’10”W,-15.7311,-68.6528,3530,3396,Northern Andean,Andean Páramos and Altiplano,4,Leeward,Tropical,Andean Altiplano,(Zonal),Sub-nival,Evergreen,Broadleaved Dwarf-forest,Tropical Andean Altiplano Sub-nival Evergreen Broadleaved Dwarf-forest
3772,AndBO016,"Llaullini, bosque alto-andino de Polylepis",Bolivia,La Paz,16°12’11”S,68°09’55”W,-16.2031,-68.1653,3906,4539,Northern Andean,Andean Páramos and Altiplano,4,Leeward,Tropical,Andean Altiplano,(Zonal),Sub-nival,Evergreen,Broadleaved Dwarf-forest,Tropical Andean Altiplano Sub-nival Evergreen Broadleaved Dwarf-forest
3783,AndBO017,"Incallajta, bosque enano del páramo yungueño",Bolivia,Cochabamba,17°35’25”S,66°24’55”W,-17.5903,-66.4153,3367,3086,Northern Andean,Andean Páramos and Altiplano,4,Leeward,Tropical,Andean Altiplano,(Zonal),Sub-nival,Evergreen,Broadleaved Dwarf-forest,Tropical Andean Altiplano Sub-nival Evergreen Broadleaved Dwarf-forest
2541,AndBO018,"Cerro Uypa, bosque alto-andino de Polylepis",Bolivia,Cochabamba,17°44’22”S,65°34’03”W,-17.7394,-65.5675,3967,3902,Northern Andean,Andean Páramos and Altiplano,4,Leeward,Tropical,Andean Altiplano,(Zonal),Sub-nival,Evergreen,Broadleaved Dwarf-forest,Tropical Andean Altiplano Sub-nival Evergreen Broadleaved Dwarf-forest
3773,AndBO019,"San Miguel, bosque enano espinoso puneño",Bolivia,La Paz,16°32’20”S,68°01’07”W,-16.5389,-68.0186,3985,4064,Northern Andean,Andean Páramos and Altiplano,4,Leeward,Tropical,Andean Altiplano,(Zonal),Semi-arid,Deciduous,Stiff-leaved Dwarf-forest,Tropical Andean Altiplano Semi-arid Deciduous Stiff-leaved Dwarf-forest
3797,AndBO020,"Oruro, bosque enano espinoso puneño",Bolivia,Oruro,17°51’41”S,67°21’21”W,-17.8614,-67.3558,3792,3911,Northern Andean,Andean Páramos and Altiplano,4,Leeward,Tropical,Andean Altiplano,(Zonal),Semi-arid,Deciduous,Stiff-leaved Dwarf-forest,Tropical Andean Altiplano Semi-arid Deciduous Stiff-leaved Dwarf-forest
3798,AndBO021,"Torotoro, bosque enano espinoso puneño",Bolivia,Potosí,18°13’32”S,65°53’49”W,-18.2256,-65.8969,3064,3125,Northern Andean,Andean Páramos and Altiplano,4,Leeward,Tropical,Andean Altiplano,(Zonal),Semi-arid,Deciduous,Stiff-leaved Dwarf-forest,Tropical Andean Altiplano Semi-arid Deciduous Stiff-leaved Dwarf-forest
1805,AndBO022,"Valle del Tuichi, bosque semi-decíduo interandino",Bolivia,La Paz,14°27’55”S,68°32’33”W,-14.4653,-68.5425,992,1046,Northern Andean,Inter-Andean Valleys and Central Cordillera,5,Leeward,Tropical,Andean foothill,(Zonal),Seasonally dry,Semideciduous,Broadleaved Forest,Tropical Andean foothill Seasonally dry Semideciduous Broadleaved Forest
2548,AndBO023,"Río Machariapo, bosque semi-decíduo interandino",Bolivia,La Paz,14°33’16”S,68°29’30”W,-14.5544,-68.4917,993,1226,Northern Andean,Inter-Andean Valleys and Central Cordillera,5,Leeward,Tropical,Andean foothill,(Zonal),Seasonally dry,Semideciduous,Broadleaved Forest,Tropical Andean foothill Seasonally dry Semideciduous Broadleaved Forest
2551,AndBO024,"Río Ubito, bosque semi-decíduo interandino",Bolivia,La Paz,14°21’50”S,68°30’22”W,-14.3639,-68.5061,1159,921,Northern Andean,Inter-Andean Valleys and Central Cordillera,5,Leeward,Tropical,Lower Andean,(Zonal),Seasonally dry,Semideciduous,Broadleaved Forest,Tropical Lower Andean Seasonally dry Semideciduous Broadleaved Forest
3770,AndBO025,"Apolo, bosque decíduo interandino",Bolivia,La Paz,14°41’25”S,68°21’30”W,-14.6903,-68.3583,1718,1800,Northern Andean,Inter-Andean Valleys and Central Cordillera,5,Leeward,Tropical,Lower Andean,(Zonal),Seasonally dry,Deciduous,Broadleaved Forest,Tropical Lower Andean Seasonally dry Deciduous Broadleaved Forest
2631,AndBO026,"Calabatea, bosque decíduo interandino",Bolivia,La Paz,14°54’13”S,68°20’54”W,-14.9036,-68.3483,1397,1514,Northern Andean,Inter-Andean Valleys and Central Cordillera,5,Leeward,Tropical,Lower Andean,(Zonal),Seasonally dry,Deciduous,Broadleaved Forest,Tropical Lower Andean Seasonally dry Deciduous Broadleaved Forest
3784,AndBO027,"Tunari, bosque enano espinoso interandino",Bolivia,Cochabamba,17°12’04”S,66°36’03”W,-17.2011,-66.6008,2358,2728,Northern Andean,Inter-Andean Valleys and Central Cordillera,5,Leeward,Tropical,Mid Andean,(Zonal),Semi-arid,Deciduous,Stiff-leaved Dwarf-forest,Tropical Mid Andean Semi-arid Deciduous Stiff-leaved Dwarf-forest
2557,AndBO028,"Capinota, bosque enano espinoso interandino",Bolivia,Cochabamba,17°41’36”S,66°14’54”W,-17.6933,-66.2483,2519,2477,Northern Andean,Inter-Andean Valleys and Central Cordillera,5,Leeward,Tropical,Mid Andean,(Zonal),Semi-arid,Deciduous,Stiff-leaved Dwarf-forest,Tropical Mid Andean Semi-arid Deciduous Stiff-leaved Dwarf-forest
3786,AndBO029,"Río Acero, bosque semi-decíduo preandino",Bolivia,Chuquisaca,19°15’11”S,63°59’34”W,-19.2531,-63.9928,751,1252,Southern Andean,Piedemonte Tucumano-Boliviano,1,Leeward,Tropical,Andean foothill,(Zonal),Seasonally dry,Semideciduous,Broadleaved Forest,Tropical Andean foothill Seasonally dry Semideciduous Broadleaved Forest
2657,AndBO030,"Río Santa Marta, bosque semi-decíduo preandino",Bolivia,Chuquisaca,20°43’44”S,64°17’51”W,-20.7289,-64.2975,907,1086,Southern Andean,Piedemonte Tucumano-Boliviano,1,Leeward,Tropical,Andean foothill,(Zonal),Seasonally dry,Semideciduous,Broadleaved Forest,Tropical Andean foothill Seasonally dry Semideciduous Broadleaved Forest
2552,AndBO031,"Samaipata, bosque semi-decíduo preandino",Bolivia,Santa Cruz,18°09’22”S,63°47’24”W,-18.1561,-63.79,1554,1647,Southern Andean,Piedemonte Tucumano-Boliviano,1,Windward,Tropical,Lower Andean,(Zonal),Seasonally dry,Semideciduous,Broadleaved Forest,Tropical Lower Andean Seasonally dry Semideciduous Broadleaved Forest
1762,AndBO032,"Serranía Volcanes, bosque decíduo preandino",Bolivia,Santa Cruz,18°06’48”S,63°36’10”W,-18.1133,-63.6028,1239,1299,Southern Andean,Piedemonte Tucumano-Boliviano,1,Leeward,Tropical,Lower Andean,(Zonal),Seasonally dry,Deciduous,Broadleaved Forest,Tropical Lower Andean Seasonally dry Deciduous Broadleaved Forest
2615,AndBO033,"Bella Vista, bosque decíduo preandino",Bolivia,Santa Cruz,18°19’02”S,63°40’24”W,-18.3172,-63.6733,1250,1293,Southern Andean,Piedemonte Tucumano-Boliviano,1,Leeward,Tropical,Lower Andean,(Zonal),Seasonally dry,Deciduous,Broadleaved Forest,Tropical Lower Andean Seasonally dry Deciduous Broadleaved Forest
3763,AndBO034,"Vallegrande, bosque decíduo preandino",Bolivia,Santa Cruz,18°25’08”S,64°06’57”W,-18.4189,-64.1158,1868,1979,Southern Andean,Piedemonte Tucumano-Boliviano,1,Leeward,Tropical,Lower Andean,(Zonal),Seasonally dry,Deciduous,Broadleaved Forest,Tropical Lower Andean Seasonally dry Deciduous Broadleaved Forest
2617,AndBO035,"Parabanó, bosque decíduo preandino",Bolivia,Santa Cruz,18°27’48”S,63°41’09”W,-18.4633,-63.6858,1339,1333,Southern Andean,Piedemonte Tucumano-Boliviano,1,Leeward,Tropical,Lower Andean,(Zonal),Seasonally dry,Deciduous,Broadleaved Forest,Tropical Lower Andean Seasonally dry Deciduous Broadleaved Forest
2618,AndBO036,"Monteagudo, bosque decíduo preandino",Bolivia,Chuquisaca,19°47’56”S,63°54’12”W,-19.7989,-63.9033,1343,1293,Southern Andean,Piedemonte Tucumano-Boliviano,1,Leeward,Tropical,Lower Andean,(Zonal),Seasonally dry,Deciduous,Broadleaved Forest,Tropical Lower Andean Seasonally dry Deciduous Broadleaved Forest
2619,AndBO037,"Parapetí, bosque decíduo preandino",Bolivia,Chuquisaca,20°13’44”S,63°50’32”W,-20.2289,-63.8422,1095,1055,Southern Andean,Piedemonte Tucumano-Boliviano,1,Leeward,Tropical,Lower Andean,(Zonal),Seasonally dry,Deciduous,Broadleaved Forest,Tropical Lower Andean Seasonally dry Deciduous Broadleaved Forest
2620,AndBO038,"Tariquía, bosque decíduo preandino",Bolivia,Tarija,22°07’24”S,64°24’12”W,-22.1233,-64.4033,1270,1187,Southern Andean,Piedemonte Tucumano-Boliviano,1,Leeward,Tropical,Lower Andean,(Zonal),Seasonally dry,Deciduous,Broadleaved Forest,Tropical Lower Andean Seasonally dry Deciduous Broadleaved Forest
767,AndBO039,"Chajramayu, yunga hiper-húmeda del pedemonte andino",Bolivia,Chuquisaca,19°19’15”S,64°09’03”W,-19.3208,-64.1508,1876,1804,Southern Andean,Yungas Tucumano-Bolivianas,2,Windward,Tropical,Lower Andean,(Zonal),Rain,Evergreen,Broadleaved Forest,Tropical Lower Andean Rain Evergreen Broadleaved Forest
3785,AndBO040,"Monte Grande, yunga hiper-húmeda andina",Bolivia,Chuquisaca,18°52’28”S,64°22’37”W,-18.8744,-64.3769,2750,2977,Southern Andean,Yungas Tucumano-Bolivianas,2,Windward,Tropical,Mid Andean,(Zonal),Cloud,Evergreen,Broadleaved Forest,Tropical Mid Andean Cloud Evergreen Broadleaved Forest
2554,AndBO041,"Río San Rafael, yungas del pedemonte andino",Bolivia,Santa Cruz,18°01’50”S,63°52’02”W,-18.0306,-63.8672,1662,1790,Southern Andean,Yungas Tucumano-Bolivianas,2,Windward,Tropical,Lower Andean,(Zonal),Seasonally cloudy,Semideciduous,Broadleaved Forest,Tropical Lower Andean Seasonally cloudy Semideciduous Broadleaved Forest
764,AndBO042,"Serranía Volcanes, yungas del pedemonte andino",Bolivia,Santa Cruz,18°02’52”S,63°37’28”W,-18.0478,-63.6244,1548,1543,Southern Andean,Yungas Tucumano-Bolivianas,2,Windward,Tropical,Lower Andean,(Zonal),Seasonally cloudy,Semideciduous,Broadleaved Forest,Tropical Lower Andean Seasonally cloudy Semideciduous Broadleaved Forest
2579,AndBO043,"Bella Vista, yungas del pedemonte andino",Bolivia,Santa Cruz,18°15’30”S,63°39’36”W,-18.2583,-63.66,1698,1402,Southern Andean,Yungas Tucumano-Bolivianas,2,Windward,Tropical,Lower Andean,(Zonal),Seasonally cloudy,Semideciduous,Broadleaved Forest,Tropical Lower Andean Seasonally cloudy Semideciduous Broadleaved Forest
2561,AndBO044,"Parabanó, yungas del pedemonte andino",Bolivia,Santa Cruz,18°23’45”S,63°39’08”W,-18.3958,-63.6522,1868,1631,Southern Andean,Yungas Tucumano-Bolivianas,2,Windward,Tropical,Lower Andean,(Zonal),Seasonally cloudy,Semideciduous,Broadleaved Forest,Tropical Lower Andean Seasonally cloudy Semideciduous Broadleaved Forest
2562,AndBO045,"Serranía del Iñao, yungas del pedemonte andino",Bolivia,Chuquisaca,19°35’28”S,65°53’57”W,-19.5911,-65.8992,1703,3801,Southern Andean,Yungas Tucumano-Bolivianas,2,Windward,Tropical,Lower Andean,(Zonal),Seasonally cloudy,Semideciduous,Broadleaved Forest,Tropical Lower Andean Seasonally cloudy Semideciduous Broadleaved Forest
765,AndBO046,"Rosario del Ingre, yungas del pedemonte andino",Bolivia,Chuquisaca,20°33’44”S,63°56’04”W,-20.5622,-63.9344,1482,1295,Southern Andean,Yungas Tucumano-Bolivianas,2,Windward,Tropical,Lower Andean,(Zonal),Seasonally cloudy,Semideciduous,Broadleaved Forest,Tropical Lower Andean Seasonally cloudy Semideciduous Broadleaved Forest
3793,AndBO047,"Entre Ríos, yungas del pedemonte andino",Bolivia,Tarija,21°31’25”S,64°12’54”W,-21.5236,-64.215,1317,1595,Southern Andean,Yungas Tucumano-Bolivianas,2,Windward,Tropical,Lower Andean,(Zonal),Seasonally cloudy,Semideciduous,Broadleaved Forest,Tropical Lower Andean Seasonally cloudy Semideciduous Broadleaved Forest
2656,AndBO048,"Cerro Bufete, yungas andinas",Bolivia,Chuquisaca,20°49’49”S,64°22’28”W,-20.8303,-64.3744,2032,1464,Southern Andean,Yungas Tucumano-Bolivianas,2,Windward,Tropical,Mid Andean,(Zonal),Seasonally cloudy,Semideciduous,Broadleaved Forest,Tropical Mid Andean Seasonally cloudy Semideciduous Broadleaved Forest
3794,AndBO049,"Agua Hedíonda, yungas andinas",Bolivia,Tarija,21°46’47”S,64°29’01”W,-21.7797,-64.4836,2159,1914,Southern Andean,Yungas Tucumano-Bolivianas,2,Windward,Tropical,Mid Andean,(Zonal),Seasonally cloudy,Semideciduous,Broadleaved Forest,Tropical Mid Andean Seasonally cloudy Semideciduous Broadleaved Forest
3791,AndBO050,"El Palmar, bosque enano espinoso interandino",Bolivia,Chuquisaca,18°54’27”S,64°53’13”W,-18.9075,-64.8869,2119,3008,Southern Andean,Inter-Andean Valleys,3,Leeward,Tropical,Mid Andean,(Zonal),Semi-arid,Deciduous,Stiff-leaved Dwarf-forest,Tropical Mid Andean Semi-arid Deciduous Stiff-leaved Dwarf-forest
3790,AndBO051,"Chacollo, bosque enano espinoso interandino",Bolivia,Chuquisaca,19°19’09”S,64°37’35”W,-19.3192,-64.6264,2812,3102,Southern Andean,Inter-Andean Valleys,3,Leeward,Tropical,Mid Andean,(Zonal),Semi-arid,Deciduous,Stiff-leaved Dwarf-forest,Tropical Mid Andean Semi-arid Deciduous Stiff-leaved Dwarf-forest
3796,AndBO052,"Millares, bosque enano espinoso interandino",Bolivia,Potosí,19°29’13”S,65°11’19”W,-19.4869,-65.1886,2451,2635,Southern Andean,Inter-Andean Valleys,3,Leeward,Tropical,Mid Andean,(Zonal),Semi-arid,Deciduous,Stiff-leaved Dwarf-forest,Tropical Mid Andean Semi-arid Deciduous Stiff-leaved Dwarf-forest
3795,AndBO053,"Cordillera de Sama, bosque enano espinoso interandino",Bolivia,Tarija,21°31’47”S,64°50’26”W,-21.5297,-64.8406,2464,2995,Southern Andean,Inter-Andean Valleys,3,Leeward,Tropical,Mid Andean,(Zonal),Semi-arid,Deciduous,Stiff-leaved Dwarf-forest,Tropical Mid Andean Semi-arid Deciduous Stiff-leaved Dwarf-forest
2559,AndBO054,"Río Seco, sabana rocosa preandina",Bolivia,Santa Cruz,18°23’28”S,63°24’18”W,-18.3911,-63.405,797,777,Southern Andean,Inter-Andean Valleys,3,Leeward,Tropical,Andean foothill,(Zonal),Seasonally dry,Semideciduous,Parkland Savanna,Tropical Andean foothill Seasonally dry Semideciduous Parkland Savanna
2616,AndBO055,"Bella Vista, sabana rocosa andina",Bolivia,Santa Cruz,18°12’59”S,63°41’41”W,-18.2164,-63.6947,1563,1519,Southern Andean,Inter-Andean Valleys,3,Leeward,Tropical,Lower Andean,Rocky,Seasonally dry,Semideciduous,Parkland Savanna,Tropical Lower Andean Rocky Seasonally dry Semideciduous Parkland Savanna
2560,AndBO056,"Parabanó, sabana rocosa andina",Bolivia,Santa Cruz,18°31’56”S,63°35’58”W,-18.5322,-63.5994,1196,1195,Southern Andean,Inter-Andean Valleys,3,Leeward,Tropical,Lower Andean,Rocky,Seasonally dry,Semideciduous,Parkland Savanna,Tropical Lower Andean Rocky Seasonally dry Semideciduous Parkland Savanna
